STARLINK-1301
1 25361C 20019B   21325.12102264  .00000848  00000-0  56814-4 0  3253
2 25361  53.0546 352.6879 0001365  55.1191 102.8452 15.06387331    11
